33064,ORBCOMM FM37,2008,97.49,-1.0,-,48.44,Inactive,0,LEO,Russia,ORBCOMM,Unknown,Unknown,Unknown,1 33064U 08031E   24227.09994404  .00007081  00000+0  10204-2 0  9998,2 33064  48.4414   0.9030 0005367 148.3871  22.0928 14.77066941868929,14.77066941,0.0005367,LEO
33065,ORBCOMM FM40,2008,97.39,-1.0,-,48.44,Inactive,0,LEO,Russia,ORBCOMM,Unknown,Unknown,Unknown,1 33065U 08031F   24226.86596757  .00008761  00000+0  12123-2 0  9990,2 33065  48.4432 350.4121 0006585 156.9708 346.7785 14.78549304868625,14.78549304,0.0006585,LEO
40088,ORBCOMM FM106,2014,98.13,-1.0,-,47.06,Inactive,0,LEO,USA,ORBCOMM,Unknown,Unknown,Unknown,1 40088U 14040C   24227.27554937  .00005413  00000+0  97576-3 0  9997,2 40088  47.0581 231.6243 0016888  79.5348 280.7444 14.67470631538571,14.67470631,0.0016888,LEO
40089,ORBCOMM FM111,2014,97.13,-1.0,-,47.0,Inactive,0,LEO,USA,ORBCOMM,Unknown,Unknown,Unknown,1 40089U 14040D   24227.08321477  .00006838  00000+0  85928-3 0  9998,2 40089  47.0030 122.1545 0032708 165.6744 194.5086 14.82506547544592,14.82506547,0.0032708,LEO
40090,ORBCOMM FM104,2014,98.94,-1.0,-,47.01,Inactive,0,LEO,USA,ORBCOMM,Unknown,Unknown,Unknown,1 40090U 14040E   24226.87626824  .00003258  00000+0  77958-3 0  9997,2 40090  47.0051  57.4873 0017559 241.2749 118.6371 14.55401402535839,14.55401402,0.0017559,LEO
40086,ORBCOMM FM109,2014,98.84,172.0,+,47.0,Active,1,LEO,USA,ORBCOMM,Commercial,Communications,Falcon,1 40086U 14040A   24226.90910018  .00003833  00000+0  88184-3 0  9999,2 40086  47.0040  26.3560 0001904 318.4812  41.5928 14.56951352536237,14.56951352,0.0001904,LEO
40087,ORBCOMM FM107,2014,98.84,172.0,+,47.01,Active,1,LEO,USA,ORBCOMM,Commercial,Communications,Falcon,1 40087U 14040B   24227.49155094  .00002765  00000+0  64677-3 0  9994,2 40087  47.0056  24.5870 0001819 285.4127  74.6557 14.56946062536435,14.56946062,0.0001819,LEO
