<?xml version="1.0" encoding="UTF-8"?>
<ndm xmlns:xsi="http://www.w3.org/2001/XMLSchema-instance" xsi:noNamespaceSchemaLocation="https://sanaregistry.org/r/ndmxml_unqualified/ndmxml-2.0.0-master-2.0.xsd">
<omm id="CCSDS_OMM_VERS" version="2.0">
<header><CREATION_DATE/><ORIGINATOR/></header><body><segment><metadata><OBJECT_NAME>ORBCOMM FM37</OBJECT_NAME><OBJECT_ID>2008-031E</OBJECT_ID><CENTER_NAME>EARTH</CENTER_NAME><REF_FRAME>TEME</REF_FRAME><TIME_SYSTEM>UTC</TIME_SYSTEM><MEAN_ELEMENT_THEORY>SGP4</MEAN_ELEMENT_THEORY></metadata><data><meanElements><EPOCH>2024-08-14T02:23:55.165056</EPOCH><MEAN_MOTION>14.77066941</MEAN_MOTION><ECCENTRICITY>.0005367</ECCENTRICITY><INCLINATION>48.4414</INCLINATION><RA_OF_ASC_NODE>0.9030</RA_OF_ASC_NODE><ARG_OF_PERICENTER>148.3871</ARG_OF_PERICENTER><MEAN_ANOMALY>22.0928</MEAN_ANOMALY></meanElements><tleParameters><EPHEMERIS_TYPE>0</EPHEMERIS_TYPE><CLASSIFICATION_TYPE>U</CLASSIFICATION_TYPE><NORAD_CAT_ID>33064</NORAD_CAT_ID><ELEMENT_SET_NO>999</ELEMENT_SET_NO><REV_AT_EPOCH>86892</REV_AT_EPOCH><BSTAR>.10204E-2</BSTAR><MEAN_MOTION_DOT>.7081E-4</MEAN_MOTION_DOT><MEAN_MOTION_DDOT>0</MEAN_MOTION_DDOT></tleParameters></data></segment></body></omm>
<omm id="CCSDS_OMM_VERS" version="2.0">
<header><CREATION_DATE/><ORIGINATOR/></header><body><segment><metadata><OBJECT_NAME>ORBCOMM FM40</OBJECT_NAME><OBJECT_ID>2008-031F</OBJECT_ID><CENTER_NAME>EARTH</CENTER_NAME><REF_FRAME>TEME</REF_FRAME><TIME_SYSTEM>UTC</TIME_SYSTEM><MEAN_ELEMENT_THEORY>SGP4</MEAN_ELEMENT_THEORY></metadata><data><meanElements><EPOCH>2024-08-13T20:46:59.598048</EPOCH><MEAN_MOTION>14.78549304</MEAN_MOTION><ECCENTRICITY>.0006585</ECCENTRICITY><INCLINATION>48.4432</INCLINATION><RA_OF_ASC_NODE>350.4121</RA_OF_ASC_NODE><ARG_OF_PERICENTER>156.9708</ARG_OF_PERICENTER><MEAN_ANOMALY>346.7785</MEAN_ANOMALY></meanElements><tleParameters><EPHEMERIS_TYPE>0</EPHEMERIS_TYPE><CLASSIFICATION_TYPE>U</CLASSIFICATION_TYPE><NORAD_CAT_ID>33065</NORAD_CAT_ID><ELEMENT_SET_NO>999</ELEMENT_SET_NO><REV_AT_EPOCH>86862</REV_AT_EPOCH><BSTAR>.12123E-2</BSTAR><MEAN_MOTION_DOT>.8761E-4</MEAN_MOTION_DOT><MEAN_MOTION_DDOT>0</MEAN_MOTION_DDOT></tleParameters></data></segment></body></omm>
<omm id="CCSDS_OMM_VERS" version="2.0">
<header><CREATION_DATE/><ORIGINATOR/></header><body><segment><metadata><OBJECT_NAME>ORBCOMM FM109</OBJECT_NAME><OBJECT_ID>2014-040A</OBJECT_ID><CENTER_NAME>EARTH</CENTER_NAME><REF_FRAME>TEME</REF_FRAME><TIME_SYSTEM>UTC</TIME_SYSTEM><MEAN_ELEMENT_THEORY>SGP4</MEAN_ELEMENT_THEORY></metadata><data><meanElements><EPOCH>2024-08-13T21:49:06.255552</EPOCH><MEAN_MOTION>14.56951352</MEAN_MOTION><ECCENTRICITY>.0001904</ECCENTRICITY><INCLINATION>47.0040</INCLINATION><RA_OF_ASC_NODE>26.3560</RA_OF_ASC_NODE><ARG_OF_PERICENTER>318.4812</ARG_OF_PERICENTER><MEAN_ANOMALY>41.5928</MEAN_ANOMALY></meanElements><tleParameters><EPHEMERIS_TYPE>0</EPHEMERIS_TYPE><CLASSIFICATION_TYPE>U</CLASSIFICATION_TYPE><NORAD_CAT_ID>40086</NORAD_CAT_ID><ELEMENT_SET_NO>999</ELEMENT_SET_NO><REV_AT_EPOCH>53623</REV_AT_EPOCH><BSTAR>.88184E-3</BSTAR><MEAN_MOTION_DOT>.3833E-4</MEAN_MOTION_DOT><MEAN_MOTION_DDOT>0</MEAN_MOTION_DDOT></tleParameters></data></segment></body></omm>
<omm id="CCSDS_OMM_VERS" version="2.0">
<header><CREATION_DATE/><ORIGINATOR/></header><body><segment><metadata><OBJECT_NAME>ORBCOMM FM107</OBJECT_NAME><OBJECT_ID>2014-040B</OBJECT_ID><CENTER_NAME>EARTH</CENTER_NAME><REF_FRAME>TEME</REF_FRAME><TIME_SYSTEM>UTC</TIME_SYSTEM><MEAN_ELEMENT_THEORY>SGP4</MEAN_ELEMENT_THEORY></metadata><data><meanElements><EPOCH>2024-08-14T11:47:50.001216</EPOCH><MEAN_MOTION>14.56946062</MEAN_MOTION><ECCENTRICITY>.0001819</ECCENTRICITY><INCLINATION>47.0056</INCLINATION><RA_OF_ASC_NODE>24.5870</RA_OF_ASC_NODE><ARG_OF_PERICENTER>285.4127</ARG_OF_PERICENTER><MEAN_ANOMALY>74.6557</MEAN_ANOMALY></meanElements><tleParameters><EPHEMERIS_TYPE>0</EPHEMERIS_TYPE><CLASSIFICATION_TYPE>U</CLASSIFICATION_TYPE><NORAD_CAT_ID>40087</NORAD_CAT_ID><ELEMENT_SET_NO>999</ELEMENT_SET_NO><REV_AT_EPOCH>53643</REV_AT_EPOCH><BSTAR>.64677E-3</BSTAR><MEAN_MOTION_DOT>.2765E-4</MEAN_MOTION_DOT><MEAN_MOTION_DDOT>0</MEAN_MOTION_DDOT></tleParameters></data></segment></body></omm>
<omm id="CCSDS_OMM_VERS" version="2.0">
<header><CREATION_DATE/><ORIGINATOR/></header><body><segment><metadata><OBJECT_NAME>ORBCOMM FM106</OBJECT_NAME><OBJECT_ID>2014-040C</OBJECT_ID><CENTER_NAME>EARTH</CENTER_NAME><REF_FRAME>TEME</REF_FRAME><TIME_SYSTEM>UTC</TIME_SYSTEM><MEAN_ELEMENT_THEORY>SGP4</MEAN_ELEMENT_THEORY></metadata><data><meanElements><EPOCH>2024-08-14T06:36:47.465568</EPOCH><MEAN_MOTION>14.67470631</MEAN_MOTION><ECCENTRICITY>.0016888</ECCENTRICITY><INCLINATION>47.0581</INCLINATION><RA_OF_ASC_NODE>231.6243</RA_OF_ASC_NODE><ARG_OF_PERICENTER>79.5348</ARG_OF_PERICENTER><MEAN_ANOMALY>280.7444</MEAN_ANOMALY></meanElements><tleParameters><EPHEMERIS_TYPE>0</EPHEMERIS_TYPE><CLASSIFICATION_TYPE>U</CLASSIFICATION_TYPE><NORAD_CAT_ID>40088</NORAD_CAT_ID><ELEMENT_SET_NO>999</ELEMENT_SET_NO><REV_AT_EPOCH>53857</REV_AT_EPOCH><BSTAR>.97576E-3</BSTAR><MEAN_MOTION_DOT>.5413E-4</MEAN_MOTION_DOT><MEAN_MOTION_DDOT>0</MEAN_MOTION_DDOT></tleParameters></data></segment></body></omm>
<omm id="CCSDS_OMM_VERS" version="2.0">
<header><CREATION_DATE/><ORIGINATOR/></header><body><segment><metadata><OBJECT_NAME>ORBCOMM FM111</OBJECT_NAME><OBJECT_ID>2014-040D</OBJECT_ID><CENTER_NAME>EARTH</CENTER_NAME><REF_FRAME>TEME</REF_FRAME><TIME_SYSTEM>UTC</TIME_SYSTEM><MEAN_ELEMENT_THEORY>SGP4</MEAN_ELEMENT_THEORY></metadata><data><meanElements><EPOCH>2024-08-14T01:59:49.756128</EPOCH><MEAN_MOTION>14.82506547</MEAN_MOTION><ECCENTRICITY>.0032708</ECCENTRICITY><INCLINATION>47.0030</INCLINATION><RA_OF_ASC_NODE>122.1545</RA_OF_ASC_NODE><ARG_OF_PERICENTER>165.6744</ARG_OF_PERICENTER><MEAN_ANOMALY>194.5086</MEAN_ANOMALY></meanElements><tleParameters><EPHEMERIS_TYPE>0</EPHEMERIS_TYPE><CLASSIFICATION_TYPE>U</CLASSIFICATION_TYPE><NORAD_CAT_ID>40089</NORAD_CAT_ID><ELEMENT_SET_NO>999</ELEMENT_SET_NO><REV_AT_EPOCH>54459</REV_AT_EPOCH><BSTAR>.85928E-3</BSTAR><MEAN_MOTION_DOT>.6838E-4</MEAN_MOTION_DOT><MEAN_MOTION_DDOT>0</MEAN_MOTION_DDOT></tleParameters></data></segment></body></omm>
<omm id="CCSDS_OMM_VERS" version="2.0">
<header><CREATION_DATE/><ORIGINATOR/></header><body><segment><metadata><OBJECT_NAME>ORBCOMM FM104</OBJECT_NAME><OBJECT_ID>2014-040E</OBJECT_ID><CENTER_NAME>EARTH</CENTER_NAME><REF_FRAME>TEME</REF_FRAME><TIME_SYSTEM>UTC</TIME_SYSTEM><MEAN_ELEMENT_THEORY>SGP4</MEAN_ELEMENT_THEORY></metadata><data><meanElements><EPOCH>2024-08-13T21:01:49.575936</EPOCH><MEAN_MOTION>14.55401402</MEAN_MOTION><ECCENTRICITY>.0017559</ECCENTRICITY><INCLINATION>47.0051</INCLINATION><RA_OF_ASC_NODE>57.4873</RA_OF_ASC_NODE><ARG_OF_PERICENTER>241.2749</ARG_OF_PERICENTER><MEAN_ANOMALY>118.6371</MEAN_ANOMALY></meanElements><tleParameters><EPHEMERIS_TYPE>0</EPHEMERIS_TYPE><CLASSIFICATION_TYPE>U</CLASSIFICATION_TYPE><NORAD_CAT_ID>40090</NORAD_CAT_ID><ELEMENT_SET_NO>999</ELEMENT_SET_NO><REV_AT_EPOCH>53583</REV_AT_EPOCH><BSTAR>.77958E-3</BSTAR><MEAN_MOTION_DOT>.3258E-4</MEAN_MOTION_DOT><MEAN_MOTION_DDOT>0</MEAN_MOTION_DDOT></tleParameters></data></segment></body></omm>

</ndm>
